STARLINK-2683_new
1 18462C 21040AL  21326.16441718 -.00015070  00000-0 -10098-2 0  3266
2 18462  53.0518  33.0030 0001607  59.5309 197.5658 15.06411713    13
STARLINK-2683_old
1 28462C 21040AL  21325.13454015  .00004944  00000-0  33120-3 0  3253
2 28462  53.0520  37.6267 0001641  62.3861   6.5371 15.06398350    13
